{"type": "FeatureCollection", "features": [{"type": "Feature", "properties": {"name": "Republic Square", "kind": "park", "source": "snapshot"}, "geometry": {"type": "Polygon", "coordinates": [[[-97.7467, 30.265], [-97.7457, 30.265], [-97.7457, 30.2658], [-97.7467, 30.2658], [-97.7467, 30.265]]]}}, {"type": "Feature", "properties": {"name": "Wooldridge Park", "kind": "park", "source": "snapshot"}, "geometry": {"type": "Polygon", "coordinates": [[[-97.7477, 30.2701], [-97.7469, 30.2701], [-97.7469, 30.2709], [-97.7477, 30.2709], [-97.7477, 30.2701]]]}}, {"type": "Feature", "properties": {"name": "Brush Square", "kind": "park", "source": "snapshot"}, "geometry": {"type": "Polygon", "coordinates": [[[-97.7393, 30.265], [-97.7384, 30.265], [-97.7384, 30.2658], [-97.7393, 30.2658], [-97.7393, 30.265]]]}}, {"type": "Feature", "properties": {"name": "Waterloo Park", "kind": "park", "source": "snapshot"}, "geometry": {"type": "Polygon", "coordinates": [[[-97.7368, 30.2713], [-97.7341, 30.2713], [-97.7341, 30.2733], [-97.7368, 30.2733], [-97.7368, 30.2713]]]}}, {"type": "Feature", "properties": {"name": "Texas Capitol Grounds", "kind": "park", "source": "snapshot"}, "geometry": {"type": "Polygon", "coordinates": [[[-97.739, 30.2738], [-97.735, 30.2738], [-97.735, 30.2762], [-97.739, 30.2762], [-97.739, 30.2738]]]}}, {"type": "Feature", "properties": {"name": "Butler Metro Park (North Shore)", "kind": "park", "source": "snapshot"}, "geometry": {"type": "Polygon", "coordinates": [[[-97.751, 30.2602], [-97.748, 30.2602], [-97.748, 30.2614], [-97.751, 30.2614], [-97.751, 30.2602]]]}}, {"type": "Feature", "properties": {"name": "UT Austin West Mall", "kind": "park", "source": "snapshot"}, "geometry": {"type": "Polygon", "coordinates": [[[-97.747, 30.2772], [-97.743, 30.2772], [-97.743, 30.278], [-97.747, 30.278], [-97.747, 30.2772]]]}}]}