{"type": "FeatureCollection", "features": [{"type": "Feature", "properties": {"name": "Lady Bird Lake", "waterway": "river", "source": "snapshot"}, "geometry": {"type": "Polygon", "coordinates": [[[-97.755, 30.261], [-97.75, 30.26115], [-97.745, 30.26095], [-97.74, 30.26125], [-97.735, 30.26105], [-97.73, 30.2613], [-97.73, 30.258000000000003], [-97.735, 30.258000000000003], [-97.74, 30.258000000000003], [-97.745, 30.258000000000003], [-97.75, 30.258000000000003], [-97.755, 30.258000000000003], [-97.755, 30.261]]]}}, {"type": "Feature", "properties": {"name": "Shoal Creek", "waterway": "stream", "source": "snapshot"}, "geometry": {"type": "Polygon", "coordinates": [[[-97.75268320737034, 30.2598], [-97.75218320737034, 30.263], [-97.75248320737033, 30.2662], [-97.75208320737033, 30.2695], [-97.75238320737034, 30.2728], [-97.75188320737034, 30.2755], [-97.75128320737034, 30.278], [-97.75111679262966, 30.278], [-97.75171679262967, 30.2755], [-97.75221679262967, 30.2728], [-97.75191679262966, 30.2695], [-97.75231679262966, 30.2662], [-97.75201679262966, 30.263], [-97.75251679262966, 30.2598], [-97.75268320737034, 30.2598]]]}}]}